OBJECT_NAME,OBJECT_ID,EPOCH,MEAN_MOTION,ECCENTRICITY,INCLINATION,RA_OF_ASC_NODE,ARG_OF_PERICENTER,MEAN_ANOMALY,EPHEMERIS_TYPE,CLASSIFICATION_TYPE,NORAD_CAT_ID,ELEMENT_SET_NO,REV_AT_EPOCH,BSTAR,MEAN_MOTION_DOT,MEAN_MOTION_DDOT
STARLINK-11438 [DTC],2025-024K,2026-06-18T14:53:14.358048,15.70799276,.00017,42.9996,292.7832,267.4303,92.6370,0,U,62888,999,7934,.12959E-2,.168966E-2,0
STARLINK-11391 [DTC],2025-024L,2026-06-18T16:38:23.565120,15.71174652,.0002235,42.9993,292.4701,280.2461,79.8155,0,U,62889,999,7935,.1066E-2,.140649E-2,0
STARLINK-11431 [DTC],2025-024M,2026-06-18T10:02:08.712096,15.70831287,.0003428,43.0005,294.7372,289.9895,70.0604,0,U,62890,999,7930,.10241E-2,.133062E-2,0
STARLINK-11435 [DTC],2025-024N,2026-06-17T09:29:33.544896,15.70844335,.00022382,43.0007,300.8263,273.9650,86.0962,0,U,62891,999,7914,.97611469E-3,.126756E-2,0
STARLINK-32878,2025-024P,2026-06-18T13:49:06.507264,15.27586775,.0001946,43.0051,115.7438,256.2827,103.7808,0,U,62892,999,7769,.47036E-3,.12706E-3,0
STARLINK-32892,2025-024Q,2026-06-18T13:54:38.551104,15.27579941,.0001045,43.0038,115.7689,285.4412,74.6324,0,U,62893,999,7769,.50057E-3,.13538E-3,0
STARLINK-32909,2025-024R,2026-06-18T04:38:57.280992,15.27580028,.0001411,43.0023,118.0362,266.6802,93.3888,0,U,62894,999,7763,.61625051E-3,.16734E-3,0
STARLINK-32901,2025-024S,2026-06-18T13:23:10.674816,15.27593148,.0002465,43.0040,115.6067,278.6399,81.4173,0,U,62895,999,7769,.487E-3,.13169E-3,0
STARLINK-32890,2025-024T,2026-06-18T06:24:01.145088,15.27590267,.0000642,42.9989,116.8577,238.5538,121.5251,0,U,62896,999,7765,.44793E-3,.12088E-3,0
STARLINK-32893,2025-024U,2026-06-18T12:57:16.578144,15.27583149,.0001426,43.0002,115.4667,253.3794,106.6901,0,U,62897,999,7769,.48601E-3,.13137E-3,0
STARLINK-32902,2025-024V,2026-06-18T12:51:44.034048,15.27586296,.0000745,42.9998,115.4332,329.4657,30.6151,0,U,62898,999,7769,.41255E-3,.1111E-3,0
STARLINK-32661,2025-024W,2026-06-17T21:47:09.315744,15.27599926,.00027883,43.0031,119.3287,263.9578,96.0956,0,U,62899,999,7759,.66277996E-3,.18033E-3,0
LEGION 5,2025-025A,2026-06-18T15:34:28.652736,15.15909194,.0007088,45.0016,293.5781,165.0476,195.0614,0,U,62900,999,7471,.15988E-3,.2853E-4,0
LEGION 6,2025-025B,2026-06-18T12:19:42.281184,15.15997427,.0006441,44.9997,203.4191,131.6568,228.4862,0,U,62901,999,7583,.12652E-3,.2208E-4,0
COSMOS 2581,2025-026A,2026-06-17T18:10:35.141088,14.95003845,.0011434,81.9959,73.9171,58.2831,301.9502,0,U,62902,999,7430,.10842E-3,.121E-4,0
COSMOS 2582,2025-026B,2026-06-17T18:10:46.553664,14.94992297,.0011379,81.9959,73.9171,58.2870,301.9457,0,U,62903,999,7429,.87554E-4,.982E-5,0
COSMOS 2583,2025-026C,2026-06-17T18:10:36.006816,14.95004422,.0011398,81.9954,73.9136,57.5467,302.6854,0,U,62904,999,7428,.16382E-3,.1816E-4,0
STARLINK-11552 [DTC],2025-027A,2026-06-18T04:02:54.328704,15.70856432,.00006299,42.9983,102.1229,328.5574,31.5256,0,U,62907,999,7899,.11190562E-2,.145786E-2,0
STARLINK-11561 [DTC],2025-027B,2026-06-18T12:34:02.125344,15.70870838,.0000739,43.0014,99.6088,295.5155,64.5636,0,U,62908,999,7901,.10541E-2,.137237E-2,0
STARLINK-11567 [DTC],2025-027C,2026-06-18T12:03:38.649024,15.70868855,.000064,43.0000,100.3314,4.5539,355.5334,0,U,62909,999,7900,.14055E-2,.184175E-2,0
STARLINK-11569 [DTC],2025-027D,2026-06-17T23:05:17.054016,15.70979554,.00028985,43.0006,103.1433,280.1368,79.9172,0,U,62910,999,7892,.14658788E-2,.193227E-2,0
STARLINK-11537 [DTC],2025-027E,2026-06-18T03:55:15.507552,15.70910369,.00012153,43.0004,102.0776,313.5689,46.5078,0,U,62911,999,7899,.17006052E-2,.224418E-2,0
STARLINK-11565 [DTC],2025-027F,2026-06-18T12:18:44.423424,15.70880078,.0001707,43.0000,99.5209,281.6010,78.4666,0,U,62912,999,7901,.12526E-2,.163756E-2,0
STARLINK-11564 [DTC],2025-027G,2026-06-18T04:10:32.941632,15.70893172,.00005874,43.0001,102.1614,302.7922,57.2889,0,U,62913,999,7895,.17275147E-2,.227912E-2,0
STARLINK-11566 [DTC],2025-027H,2026-06-18T11:55:59.739744,15.70862706,.000062,42.9997,100.2900,320.6096,39.4726,0,U,62914,999,7904,.12152E-2,.15864E-2,0
STARLINK-11555 [DTC],2025-027J,2026-06-18T11:57:18.378432,15.70866003,.0000779,42.9992,100.2947,311.0679,49.0122,0,U,62915,999,7904,.12459E-2,.162762E-2,0
STARLINK-11430 [DTC],2025-027K,2026-06-18T12:11:17.575584,15.70870000,.0001482,42.9999,100.3721,47.3806,312.7187,0,U,62916,999,7904,.11625E-2,.151659E-2,0
STARLINK-11560 [DTC],2025-027L,2026-06-18T16:00:05.155776,15.70953056,.0001362,43.0001,98.9686,238.5157,121.5578,0,U,62917,999,7903,.13001E-2,.170652E-2,0
STARLINK-11562 [DTC],2025-027M,2026-06-18T12:41:40.522272,15.70861977,.0001337,43.0028,99.6483,284.1142,75.9577,0,U,62918,999,7905,.1086E-2,.14143E-2,0
STARLINK-11457 [DTC],2025-027N,2026-06-18T12:26:23.807040,15.71120409,.0001565,43.0022,99.5599,342.6626,17.4188,0,U,62919,999,7901,.14249E-2,.188806E-2,0
STARLINK-32921,2025-027P,2026-06-18T13:54:41.997600,15.27584601,.0001531,43.0008,278.9746,274.3398,85.7278,0,U,62920,999,7697,.53621E-3,.14524E-3,0
STARLINK-32917,2025-027Q,2026-06-18T14:15:02.853792,15.27585685,.0001907,43.0021,279.0720,265.6967,94.3666,0,U,62921,999,7697,.40084E-3,.10786E-3,0
STARLINK-32916,2025-027R,2026-06-18T14:00:16.342272,15.27547382,.0001455,42.9995,278.9936,264.7526,95.3160,0,U,62922,999,7697,.36416E-5,-.162E-5,0
STARLINK-32905,2025-027S,2026-06-18T14:31:42.340224,15.27581704,.0001181,42.9990,279.1601,267.2978,92.7738,0,U,62923,999,7697,.45114E-3,.12174E-3,0
STARLINK-32871,2025-027T,2026-06-18T14:09:29.877696,15.27595513,.0000948,42.9961,279.0348,271.9071,88.1672,0,U,62924,999,7697,.49026E-3,.1326E-3,0
STARLINK-32920,2025-027U,2026-06-18T14:03:56.941344,15.27597718,.0002933,42.9962,279.0090,281.1006,78.9515,0,U,62925,999,7697,.70447E-3,.19186E-3,0
STARLINK-32922,2025-027V,2026-06-16T15:21:27.614880,15.27593324,.00013046,42.9998,290.2057,279.4099,80.6605,0,U,62926,999,7667,.58224077E-3,.15801E-3,0
STARLINK-32891,2025-027W,2026-06-18T14:35:24.652608,15.27594683,.0004715,42.9911,279.1780,283.6022,76.4304,0,U,62927,999,7709,.46016E-3,.1243E-3,0
KINEIS-2C,2025-028B,2026-06-18T16:17:43.946304,14.73357509,.0002317,98.1242,224.0739,256.1742,103.9208,0,U,62929,999,7283,.26758E-3,.1682E-4,0
KINEIS-2D,2025-028C,2026-06-18T16:18:37.072800,14.75690456,.0003232,97.9285,222.0971,172.4695,187.6563,0,U,62930,999,7293,.1994E-3,.1313E-4,0
KINEIS-2E,2025-028D,2026-06-18T09:02:25.754208,14.77017354,.0001825,97.8954,220.9849,115.2525,244.8875,0,U,62931,999,7295,.17638E-3,.1193E-4,0
KINEIS-2A,2025-028E,2026-06-18T02:43:40.111680,14.73384248,.00053437,98.1301,224.4944,150.4352,209.7159,0,U,62932,999,7274,.17150989E-3,.106E-4,0
KINEIS-2B,2025-028G,2026-06-18T15:13:22.777824,14.73387993,.0004656,97.9667,222.4703,133.5090,226.6506,0,U,62934,999,7287,.17129E-3,.1061E-4,0
STARLINK-32728,2025-029A,2026-06-18T13:51:53.610048,15.34399236,.0001585,53.1605,121.0325,89.3444,270.7740,0,U,62948,999,7684,.33149E-3,.1084E-3,0
STARLINK-32857,2025-029B,2026-06-18T14:06:54.768960,15.34399352,.0001473,53.1603,120.3970,78.5054,281.6114,0,U,62949,999,7685,.53572E-3,.17766E-3,0
STARLINK-32850,2025-029C,2026-06-18T14:17:07.154016,15.31710537,.0001559,53.1592,123.2709,81.3099,278.8079,0,U,62950,999,7678,.56215E-3,.17125E-3,0
STARLINK-32875,2025-029D,2026-06-18T14:03:52.200576,15.34420908,.000146,53.1598,120.3773,88.8662,271.2508,0,U,62951,999,7682,.64596E-3,.21526E-3,0
STARLINK-32865,2025-029E,2026-06-18T14:10:22.939392,15.31706940,.0001201,53.1601,123.2397,90.6880,269.4259,0,U,62952,999,7678,-.19307E-3,-.6353E-4,0
STARLINK-32884,2025-029F,2026-06-18T14:22:03.779904,15.34380485,.0001503,53.1601,120.4544,93.7054,266.4120,0,U,62953,999,7682,.86617E-3,.28984E-3,0
STARLINK-32874,2025-029G,2026-06-18T14:09:56.417184,15.34401300,.0001866,53.1605,120.3988,93.8476,266.2740,0,U,62954,999,7682,.50012E-3,.16559E-3,0
STARLINK-32880,2025-029H,2026-06-18T13:56:56.152608,15.31712919,.0001285,53.1585,123.1815,100.9122,259.2024,0,U,62955,999,7678,.68272E-4,.1755E-4,0
STARLINK-32815,2025-029J,2026-06-18T07:00:20.592000,15.34408763,.0001251,53.1595,122.0947,112.4917,247.6218,0,U,62956,999,7677,.47353E-3,.1566E-3,0
STARLINK-32879,2025-029K,2026-06-18T06:54:11.778048,15.31714354,.0001034,53.1587,124.9059,79.4574,280.6543,0,U,62957,999,7672,.51449E-3,.15641E-3,0
STARLINK-32885,2025-029L,2026-06-18T03:34:34.718016,15.34401590,.0001134,53.1590,122.6222,85.1661,274.9471,0,U,62958,999,7674,.69385E-3,.2314E-3,0
STARLINK-32896,2025-029M,2026-06-18T14:33:05.743872,15.30202247,.0001232,53.1597,124.0441,85.6311,274.4830,0,U,62959,999,7676,.49367E-3,.14291E-3,0
STARLINK-32877,2025-029N,2026-06-18T06:33:41.563872,15.30209502,.0001123,53.1592,125.5233,70.1291,289.9830,0,U,62960,999,7669,.45771E-3,.13225E-3,0
STARLINK-32889,2025-029P,2026-06-18T14:28:31.232064,15.30200623,.0001487,53.1603,124.0267,84.9526,275.1645,0,U,62961,999,7676,.50735E-3,.14697E-3,0
STARLINK-32858,2025-029Q,2026-06-18T14:37:28.640928,15.30199674,.0001638,53.1603,123.3556,72.2082,287.9097,0,U,62962,999,7675,.46227E-3,.13356E-3,0
STARLINK-32882,2025-029R,2026-06-18T14:12:56.818656,15.34404542,.0001497,53.1595,120.4124,102.3503,257.7667,0,U,62963,999,7681,.22954E-3,.7388E-4,0
STARLINK-32887,2025-029S,2026-06-18T13:33:42.727968,15.34401898,.0001466,53.1601,120.9514,67.4481,292.6677,0,U,62964,999,7680,.71006E-3,.23692E-3,0
STARLINK-32836,2025-029T,2026-06-18T13:54:55.049184,15.34409002,.0001115,53.1603,121.0429,85.2606,274.8524,0,U,62965,999,7680,.37448E-3,.123E-3,0
STARLINK-32888,2025-029U,2026-06-18T14:19:24.231936,15.30200877,.0001467,53.1616,123.9917,102.3341,257.7824,0,U,62966,999,7676,.24454E-3,.689E-4,0
STARLINK-32897,2025-029V,2026-06-18T13:55:35.990688,15.34413701,.000114,53.1593,122.4593,80.4269,279.6862,0,U,62967,999,7678,.33593E-3,.10995E-3,0
STARLINK-32863,2025-029W,2026-06-18T03:26:05.865216,15.31730197,.0001371,53.1592,125.4223,80.9270,279.1887,0,U,62968,999,7584,.36554E-3,.11005E-3,0
STARLINK-32894,2025-029X,2026-06-18T07:06:57.610368,15.30205604,.0001249,53.1582,124.9527,100.8061,259.3081,0,U,62969,999,7672,.4035E-3,.11612E-3,0
